*******************************************************************************
JPL/HORIZONS                2201 Oljato (1947 XC)          2023-Oct-16 05:36:51
Rec #:    2201 (+COV) Soln.date: 2023-Oct-14_06:57:55   # obs: 1214 (1931-2023)
 
IAU76/J2000 helio. ecliptic osc. elements (au, days, deg., period=Julian yrs):
 
  EPOCH=  2457860.5 ! 2017-Apr-17.00 (TDB)         Residual RMS= .20503
   EC= .7130337650897079   QR= .6241494039389449   TP= 2458339.9391174419
   OM= 74.99374330682159   W=  98.26017448201533   IN= 2.522381137464764
   A= 2.174992483467816    MA= 212.6836674586671   ADIST= 3.725835562996688
   PER= 3.20771            N= .307268071           ANGMOM= .017787245
   DAN= 1.19122            DDN= .96984             L= 173.2618181
   B= 2.496197             MOID= .00315918         TP= 2018-Aug-09.4391174419
 
Asteroid physical parameters (km, seconds, rotational period in hours):
   GM= n.a.                RAD= .900               ROTPER= 26.
   H= 15.35                G= .150                 B-V= n.a.
                           ALBEDO= .4328           STYP= Sq

ASTEROID comments: 
1: soln ref.= JPL#253, PHA  OCC=0       radar( 0 delay, 5 Dop.)
2: source=ORB
*******************************************************************************

  

*******************************************************************************
Ephemeris / WWW_USER Mon Oct 16 05:36:51 2023 Pasadena, USA      / Horizons    
*******************************************************************************
Target body name: 2201 Oljato (1947 XC)           {source: JPL#253}
Center body name: Earth (399)                     {source: DE441}
Center-site name: Siding Spring Observatory
*******************************************************************************
Start time      : A.D. 1977-Oct-06 10:03:54.1500 UT      
Stop  time      : A.D. 1994-Aug-28 16:33:03.6060 UT      
Step-size       : 0 steps
*******************************************************************************
Target pole/equ : undefined
Target radii    : 0.9 km                                                       
Center geodetic : 149.0661, -31.2771053, 1.17238  {E-lon(deg),Lat(deg),Alt(km)}
Center cylindric: 149.0661,5457.10593,-3292.79873 {E-lon(deg),Dxy(km),Dz(km)}
Center pole/equ : ITRF93                          {East-longitude positive}
Center radii    : 6378.137, 6378.137, 6356.752 km {Equator_a, b, pole_c}       
Target primary  : Sun
Vis. interferer : MOON (R_eq= 1737.400) km        {source: DE441}
Rel. light bend : Sun                             {source: DE441}
Rel. lght bnd GM: 1.3271E+11 km^3/s^2                                          
Small-body perts: Yes                             {source: SB441-N16}
Atmos refraction: NO (AIRLESS)
RA format       : HMS
Time format     : CAL 
Calendar mode   : Mixed Julian/Gregorian
EOP file        : eop.231013.p240103                                           
EOP coverage    : DATA-BASED 1962-JAN-20 TO 2023-OCT-13. PREDICTS-> 2024-JAN-02
Units conversion: 1 au= 149597870.700 km, c= 299792.458 km/s, 1 day= 86400.0 s 
Table cut-offs 1: Elevation (-90.0deg=NO ),Airmass (>38.000=NO), Daylight (NO )
Table cut-offs 2: Solar elongation (  0.0,180.0=NO ),Local Hour Angle( 0.0=NO )
Table cut-offs 3: RA/DEC angular rate (     0.0=NO )                           
*******************************************************************************
Initial IAU76/J2000 heliocentric ecliptic osculating elements (au, days, deg.):
  EPOCH=  2457860.5 ! 2017-Apr-17.00 (TDB)         Residual RMS= .20503        
   EC= .7130337650897079   QR= .6241494039389449   TP= 2458339.9391174419      
   OM= 74.99374330682159   W=  98.26017448201533   IN= 2.522381137464764       
  Equivalent ICRF heliocentric cartesian coordinates (au, au/d):
   X= 3.635264855338881E+00  Y= 1.311051104145813E-01  Z=-1.108040379786289E-01
  VX=-1.735069281621788E-03 VY= 4.400109887965918E-03 VZ= 2.048467077325987E-03
Asteroid physical parameters (km, seconds, rotational period in hours):        
   GM= n.a.                RAD= .900               ROTPER= 26.                 
   H= 15.35                G= .150                 B-V= n.a.                   
                           ALBEDO= .4328           STYP= Sq                    
*************************************************************************************************************************************************************************************
 Date__(UT)__HR:MN:SC.fff     R.A.__(FK4/B1950)___DEC    APmag   S-brt             delta      deldot     S-O-T /r     S-T-O  Sky_motion  Sky_mot_PA  RelVel-ANG  Lun_Sky_Brt  sky_SNR
*************************************************************************************************************************************************************************************
$$SOE
 1977-Oct-06 10:03:54.150     21 04 38.19 -19 51 14.2   20.657   5.374  2.48099917635583  30.9270700  120.1001 /T   16.1683   0.1128627   275.18199   83.754211         n.a.     n.a.
 1991-Sep-02 15:26:06.510     00 37 28.22 +00 30 01.1   20.870   5.412  2.70972279312334 -16.2008777  150.1094 /L    7.9890   0.5289698   245.11351   -43.08019         n.a.     n.a.
 1993-Sep-07 11:17:32.593     21 10 43.04 -19 50 38.6   19.790   5.012  1.97869754754496  22.6188260  149.7661 /T   10.0933   0.5683329   256.37235   58.993601         n.a.     n.a.
 1994-Aug-28 16:33:03.606  m  00 12 24.97 -02 15 58.5   20.955   5.435  2.78854099140270 -13.0156894  152.3754 /L    7.2500   0.5440384   244.98797   -35.36901        1.020    5.328
